#dP2022  1  1  0  0  0.00000000      96 __u+U ITR00 FIT  IAC
## 2190 518400.00000000   900.00000000 59580 0.0000000000000
+  112   C06C08C09C10C11C12C13C14C16C19C20C21C22C23C24C25C26
+        C27C28C29C30C32C33C34C35C36C37C38C39C40C41C42C43C44
+        C45C46E01E02E03E04E05E07E08E09E11E12E13E14E15E18E19
+        E21E24E25E26E27E30E31E33E36G01G02G03G04G05G06G07G08
+        G09G10G11G12G13G14G15G16G17G18G19G20G21G22G23G24G25
+        G26G27G28G29G30G31G32R01R02R03R04R05R07R08R09R11R12
+        R13R14R15R17R18R19R20R21R22R24  0  0  0  0  0  0  0
++         8  6  8  8  8  6  7  8  9  7  7  6  6  7  7  6  6
++         6  9  7  8  8  7  7  6  6  9  9  9  8  6  6  7  6
++         8  7  6  6  6  6  6  5  8  6  7  6  6  7  6  6  7
++         5  6  6  6  5  6  5  7  6  5  6  7  6  5  6  5  6
++         6  6  6  5  6  6  6  7  7  6  5  7  6  6  7  4  5
++         7  6  7  6  6  7  6  8  6  6  7  6  7  7  6  5  7
++         8  7  7  6  5  7  7  6  7  8  0  0  0  0  0  0  0
%c M  cc GPS ccc cccc cccc cccc cccc ccccc ccccc ccccc ccccc
%c cc cc ccc ccc cccc cccc cccc cccc ccccc ccccc ccccc ccccc
%f  0.0000000  0.000000000  0.00000000000  0.000000000000000
%f  0.0000000  0.000000000  0.00000000000  0.000000000000000
%i    0    0    0    0      0      0      0      0         0
%i    0    0    0    0      0      0      0      0         0
/* INFORMATION & ANALYSIS CENTER (IAC)      ULTRA-RAPID DATA
/* S/V CLOCKS ARE ALIGNED TO GNSS TIME                      
/* G:C1WC2W R:C1PC2P E:C1XC5X C:C2IC6I J:C1CC2S             
/* PCV:IGS14_2186 OL/AL:FES2004  NONE     YN ORB:CoN CLK:CoN
*  2022 01 01 22  0  0.00000000
PC06 -11733.722484  40610.162237   -179.503343   -191.724691
PC08 -15657.220496  23166.267891  31506.197022     25.848870
PC09  -8296.833714  40876.330432  -7396.966682   -398.640463
PC10   4868.144097  32149.418037 -26345.155227    138.784511
PC11  -1358.269391  26023.146977  10009.330082   -296.723396
PC12 -12458.003061  23766.942970  -7587.783141   -431.294738
PC13  -9307.336799  24520.489758  33068.134499   -159.772282
PC14   8947.206543  22673.849267  13560.572522    480.195895
PC16 -14282.373049  39589.939636   4323.832610     42.996032
PC19 -16623.680800 -21885.644706  -4849.397094    915.217319
PC20  -1698.718494 -20436.534733 -18925.603463   -800.134806
PC21 -15197.585791   6564.585096  22479.979721   -956.300205
PC22 -22477.326746 -10779.936518  12559.743940   -962.158699
PC23  25661.504188   1774.031886 -10836.769369   -965.209359
PC24 -10267.878098  16987.446129 -19614.875099   -947.627966
PC25  12241.437594  12730.562062 -21620.419862   -801.132121
PC26 -24272.792367  11773.057704  -7070.779858    799.506400
PC27  16113.974954 -16978.469824  15165.727677    654.636505
PC28  15695.261596   2835.088803  22905.255913     15.879226
PC29  -6782.849023 -20969.343090 -17118.765206    495.673772
PC30   6566.969787 -27099.632130   -754.454751    490.188717
PC32  15185.383099  -6632.257110 -22441.914353   -956.990287
PC33  16658.590011  21825.508684   4965.044061   -956.731027
PC34  -6026.377989  27211.109600   1647.481714   -501.361574
PC35 -15691.117912  -2987.767401 -22885.635226     73.483737
PC36 -11412.808264 -13243.628075  21767.489152   -851.451198
PC37  25096.990298 -10631.810513   6070.293735   -928.619754
PC38 -23375.052656  24443.828507  25098.817486    200.971902
PC39 -14410.111918  38704.614870   8918.109424     34.531943
PC40  -6511.248354  24348.740648 -33781.310218    231.841508
PC41  22532.695858  11061.604697 -12156.824982   -919.605127
PC42    744.767516  20031.889981  19449.900656   -930.280566
PC43   6349.984478  21497.277197  16633.067820   -950.677487
PC44 -15671.700218  17346.452346 -15270.417623    517.737164
PC45 -25710.203064  -1550.650409  10699.190901    642.630446
PC46   8932.447850 -16983.640474  20275.289071    -92.063711
PE01 -27695.944105  -9840.637002   3435.481860   -550.637976
PE02  27768.559949   9754.032610  -3285.313756    270.797826
PE03  17888.787714  13343.996349 -19449.517690   -512.612217
PE04 -15254.752071   8363.490631  23947.280263   -933.597002
PE05  10054.190061  27631.298502  -3426.353100   -221.963229
PE07   3531.928981 -25634.307308 -14378.573669   -623.900360
PE08  14919.871501  -8841.739222 -23993.775941   5879.090379
PE09  -3195.891285  25730.862484  14266.492873   5409.642111
PE11 -14513.428507  23889.358697   9755.649550   4768.934072
PE12 -23596.587534  14956.318117  -9797.584468   4831.251116
PE13  14932.928264 -23844.344916  -9186.338371    425.242353
PE14  -2503.585459 -29621.120929   -832.242135  -1695.376560
PE15  23543.348429 -14931.973207   9956.742731    771.803262
PE18  -7247.770908  24279.923925 -10055.719727  -1865.689569
PE19 -17333.060822 -15842.446110  18014.686904    466.973385
PE21 -14835.612099 -17222.033892  18953.094182   -708.753160
PE24  -8610.294992  14732.888092 -24194.608491  -1312.139695
PE25  14619.734782  17262.540897 -19092.973868   -558.853609
PE26  -3414.689375 -18175.206642 -23102.825695   -638.626241
PE27   7285.906152 -15150.965977  24367.444194   -200.083104
PE30  25603.593260  -3308.351552  14494.768226   -157.714921
PE31 -24918.288332   4188.169122 -15400.027729   -490.172568
PE33 -18244.471963  -2729.556309 -23138.368187   -460.824081
PE36   2412.649375  18695.097723  22832.472049   -312.138900
PG01   9206.364600 -19500.702371 -15546.128758    468.336213
PG02 -21304.204724  15359.707587  -3645.100287   -647.480911
PG03   -538.851772 -16014.943177 -21303.306892    -62.243875
PG04   1056.070325 -26066.596959  -4756.117175   -196.786804
PG05 -15789.852827   8582.410096  19443.289929    -66.440600
PG06 -20461.919286   1342.154608 -16846.916114    158.914343
PG07  -7167.194704 -14009.922873  21736.290253    297.470178
PG08   7471.965455 -20521.023036  14859.316594    -50.427264
PG09  -7888.315319 -24559.812703   6181.863874   -359.105963
PG10  23837.919229  11860.167331   2410.692816   -283.029358
PG11 -23465.800592  11304.336804  -5166.818085     -3.891639
PG12  -2928.725862  15253.240320 -21818.848328   -149.548966
PG13 -12899.768141  13734.101077  18500.706875    238.670653
PG14 -23120.193525 -12906.782533   2466.682072    -64.454675
PG15  -5132.413050  21733.349251  13728.936326    -94.722819
PG16  19134.009986  -3693.245277  17997.753808   -449.434948
PG17 -12577.432436 -15147.426407 -17370.803701    555.635905
PG18   7007.879584  13385.784322  21834.700066    268.825477
PG19 -14580.184459  -6431.284523 -21539.800639    100.002637
PG20 -23110.001766   3409.159633  12385.770643    517.367036
PG21  16120.203490 -19657.107845  -5828.779454    155.169663
PG22   8581.707944 -13487.168491 -21014.758205   -427.435475
PG23  16970.282414  16078.035035  12679.179212     15.546747
PG24 -11462.600815  21084.224113 -11205.646258    276.736403
PG25  10131.719089  17605.370977 -17534.684159    264.646236
PG26  25427.104024   3662.550711   7271.255081    170.527523
PG27  12760.895099 -10488.613723  20518.452953     42.324688
PG28 -24160.256038  -9306.524967  -4832.510069    430.920058
PG29   3323.708365  26130.293783   3128.562625   -461.818513
PG30 -15968.111720  -6847.865689  20213.425996   -503.729306
PG31  22120.548974  -2854.669124 -14889.376630   -157.917969
PG32  14976.595661  10551.095843 -19177.861559    -43.928129
PR01  15110.355065  20484.732439  -1596.115630      7.306597
PR02  15403.393014   7324.549042 -18957.307594    505.194218
PR03   6593.305130  -9543.790166 -22672.770651     49.191575
PR04  -5879.746394 -20686.600239 -13683.089118    121.639884
PR05 -14927.420121 -20461.765796   2905.029621     85.224844
PR07  -6083.619474  10250.369944  22591.398088    -38.720549
PR08   5894.894275  20763.003886  13670.103049    -62.854179
PR09 -25439.865838    918.735062   2138.686612     31.863620
PR11  -2690.599338  11030.251466 -22834.339688     47.952524
PR12  16678.448517   7431.004311 -17802.460451    291.433286
PR13  25306.149648   -367.591339  -3231.144230    -16.465703
PR14  19171.565617  -8372.181645  14596.736422     72.764887
PR15   2020.477022 -11111.861520  22887.681481     99.195901
PR17  14205.306252 -19394.979623   8600.263683    488.831099
PR18   7592.339200 -22862.347059  -8288.820274    102.463743
PR19  -1961.889731 -15227.713119 -20364.209733   -172.846427
PR20 -13049.744612   3856.345808 -21570.151768    -62.275037
PR21 -13949.593532  20070.424655  -7244.930752   -266.793015
PR22  -7245.447140  22714.969340   9191.848234   -155.321400
PR24  13571.169852  -4586.738340  21132.499284     73.808214
EOF
